OBJECT_NAME,OBJECT_ID,EPOCH,MEAN_MOTION,ECCENTRICITY,INCLINATION,RA_OF_ASC_NODE,ARG_OF_PERICENTER,MEAN_ANOMALY,EPHEMERIS_TYPE,CLASSIFICATION_TYPE,NORAD_CAT_ID,ELEMENT_SET_NO,REV_AT_EPOCH,BSTAR,MEAN_MOTION_DOT,MEAN_MOTION_DDOT
LUR-1,2024-149AQ,2026-06-06T23:25:17.334912,15.29973265,.0003696,97.3735,236.8794,4.8212,355.3064,0,U,60506,999,10041,.28550011E-3,.8211E-4,0
TANAGER-1,2024-149AR,2026-06-06T12:53:25.859904,15.44899039,.00040156,97.2805,251.7841,339.7358,20.3731,0,U,60507,999,10139,.68804079E-4,.3144E-4,0
EAGLEEYE,2024-149AS,2026-06-06T12:37:17.053248,15.69009249,.0002889,97.3717,250.2911,268.5575,91.5356,0,U,60508,999,10126,.96042284E-3,.11183E-2,0
FLOCK 4BE-29,2024-149AT,2026-06-06T03:53:35.661984,15.43782952,.00019934,97.3804,242.8720,6.0175,354.1097,0,U,60509,999,10071,.56200617E-3,.2539E-3,0
TRANSPORTER-11 OBJECT AU,2024-149AU,2026-06-06T23:41:17.180160,15.39939163,.00027111,97.3725,241.6286,345.9546,14.1624,0,U,60510,999,10074,.4184012E-3,.16593E-3,0
FLOCK 4BE-2,2024-149AV,2026-06-06T11:40:05.909664,15.51572160,.00023147,97.3830,244.4853,304.7603,55.3432,0,U,60511,999,10084,.11292891E-2,.67285E-3,0
FLOCK 4BE-13,2024-149AW,2026-06-06T04:29:32.279424,15.41589695,.00027758,97.3715,241.4867,319.5936,40.5105,0,U,60512,999,10067,.46345335E-3,.19427E-3,0
FLOCK 4BE-27,2024-149AX,2026-06-06T11:58:35.830848,15.34260457,.00034317,97.3821,239.3467,4.8959,355.2317,0,U,60513,999,10050,.3810003E-3,.12566E-3,0
FLOCK 4BE-9,2024-149AY,2026-06-06T12:04:35.908896,15.40478438,.00020501,97.3788,241.6738,5.4023,354.7245,0,U,60514,999,10067,.49143304E-3,.19861E-3,0
FLOCK 4BE-6,2024-149BA,2026-06-06T04:45:56.879136,15.39279445,.00026218,97.3786,240.7456,359.0206,1.1034,0,U,60516,999,10058,.49811632E-3,.19354E-3,0
FLOCK 4BE-14,2024-149BB,2026-06-06T10:50:56.690592,15.40659908,.00033414,97.3693,241.1277,348.9578,11.1595,0,U,60517,999,10067,.535501E-3,.21787E-3,0
FLOCK 4BE-1,2024-149BC,2026-06-06T11:29:54.227904,15.42250412,.00031048,97.3776,242.3943,346.0211,14.0950,0,U,60518,999,10072,.53966928E-3,.23151E-3,0
FLOCK 4BE-28,2024-149BD,2026-06-06T12:13:19.003872,15.44533736,.00031715,97.3742,243.1159,341.1878,18.9253,0,U,60519,999,10079,.51456391E-3,.23835E-3,0
IPERDRONE.0,2024-149BE,2026-06-06T04:29:29.348736,15.65082325,.00025532,97.3790,249.8701,256.2183,103.8792,0,U,60520,999,10119,.94066085E-3,.93306E-3,0
TRANSPORTER-11 OBJECT BF,2024-149BF,2026-06-07T00:17:02.598432,15.80407394,.0005003,97.3766,253.1978,247.7097,112.3641,0,U,60521,999,10147,.113301E-2,.218429E-2,0
CONNECTA IOT-2,2024-149BG,2026-06-06T22:29:03.262848,15.23889317,.0006541,97.3834,236.2384,16.0126,344.1317,0,U,60522,999,10033,.21482803E-3,.5118E-4,0
PTD-R (TYVAK-0127),2024-149BH,2026-06-06T13:42:35.166240,16.05457535,.0008062,97.3916,257.4567,269.4027,90.6331,0,U,60523,999,10173,.16721E-2,.11572E-1,.76335E-3
CONNECTA IOT-4,2024-149BJ,2026-06-07T00:27:08.789472,15.41779436,.0004224,97.3792,242.2718,334.5591,25.5447,0,U,60524,999,10076,.52457619E-3,.22151E-3,0
ORESAT0.5,2024-149BK,2026-06-06T11:53:38.029056,15.44679477,.0004309,97.3720,243.3361,323.7229,36.3726,0,U,60525,999,10082,.53131005E-3,.24742E-3,0
DEIMOS,2024-149BL,2026-06-06T23:24:56.725056,15.43863266,.0004258,97.3784,243.9685,331.0117,29.0894,0,U,60526,999,10087,.47454756E-3,.21478E-3,0
CUAVA-2,2024-149BM,2026-06-06T12:42:21.750624,15.35872997,.00058028,97.3722,239.0328,341.6786,18.4247,0,U,60527,999,10053,.44532549E-3,.15487E-3,0
ERNST,2024-149BN,2026-06-06T04:22:02.519904,15.38917144,.00051502,97.3803,240.8217,348.8484,11.2647,0,U,60528,999,10058,.48760942E-3,.18725E-3,0
TORO,2024-149BQ,2026-06-06T22:36:33.004224,14.96383169,.00015116,97.6776,232.8012,90.9057,269.2338,0,U,60530,999,9842,.20845166E-3,.2304E-4,0
HYPSO-2,2024-149BR,2026-06-06T10:50:40.377408,14.98748153,.00018688,97.6829,233.8705,54.4250,305.7147,0,U,60531,999,9844,.21728679E-3,.2557E-4,0
LEMU NGE,2024-149BS,2026-06-07T00:16:06.881664,14.94910141,.00024406,97.6835,233.1765,80.4555,279.6941,0,U,60532,999,9843,.25522132E-3,.2728E-4,0
LEMUR-2-STELLA,2024-149BT,2026-06-06T11:46:58.784160,15.11579016,.00020125,97.6731,239.9014,99.4545,260.6912,0,U,60533,999,9888,.93723788E-3,.15863E-3,0
SATELIOT_2,2024-149BU,2026-06-06T23:53:42.883008,14.96322245,.00016501,97.6819,233.1379,102.4844,257.6562,0,U,60534,999,9844,.17730235E-3,.1948E-4,0
NIGHTJAR,2024-149BV,2026-06-06T10:40:43.671360,14.98970899,.00025104,97.6866,234.3011,90.6621,269.4889,0,U,60535,999,14126,.29935453E-3,.3566E-4,0
LEMUR-2-MARHISYAM,2024-149BW,2026-06-06T04:51:39.830112,15.11031638,.00030945,97.6874,240.0497,137.6306,222.5163,0,U,60536,999,9882,.90038403E-3,.15006E-3,0
SATELIOT_4,2024-149BX,2026-06-06T22:36:03.931488,14.96628676,.00033659,97.6727,232.6191,83.2564,276.9041,0,U,60537,999,9844,.20246041E-3,.225E-4,0
